{"type": "FeatureCollection", "features": [ {"type": "Feature", "properties": {"norad_id": 28659, "name": "DIRECTV 8", "group": "intelsat", "lat": 0.018817682524704442, "lon": 30.169759409107506, "alt_km": 35790.52993048381, "timestamp": "2025-12-21T03:56:50.521895+00:00", "meta": {"OBJECT_NAME": "DIRECTV 8", "OBJECT_ID": "2005-019A", "EPOCH": "2025-12-20T17:47:48.286176", "MEAN_MOTION": 1.00270148, "ECCENTRICITY": 0.0002892, "INCLINATION": 0.025, "RA_OF_ASC_NODE": 13.889, "ARG_OF_PERICENTER": 267.277, "MEAN_ANOMALY": 316.3073, "EPHEMERIS_TYPE": 0, "CLASSIFICATION_TYPE": "U", "NORAD_CAT_ID": 28659, "ELEMENT_SET_NO": 999, "REV_AT_EPOCH": 7528, "BSTAR": 0, "MEAN_MOTION_DOT": 0, "MEAN_MOTION_DDOT": 0}, "tle": {"line1": "1 28659U 05019A   25354.74153109  .00000000  00000+0  00000+0 0  9992", "line2": "2 28659   0.0250  13.8890 0002892 267.2770 316.3073  1.00270148 75288"}}, "geometry": {"type": "Point", "coordinates": [30.169759409107506, 0.018817682524704442]}}, {"type": "Feature", "properties": {"norad_id": 28702, "name": "GALAXY 28 (G-28)", "group": "intelsat", "lat": -0.9798106461258754, "lon": 60.54925586888287, "alt_km": 35796.72069896152, "timestamp": "2025-12-21T03:56:50.521906+00:00", "meta": {"OBJECT_NAME": "GALAXY 28 (G-28)", "OBJECT_ID": "2005-022A", "EPOCH": "2025-12-20T00:49:30.482112", "MEAN_MOTION": 1.00271047, "ECCENTRICITY": 0.00029384, "INCLINATION": 2.8382, "RA_OF_ASC_NODE": 81.1982, "ARG_OF_PERICENTER": 194.0723, "MEAN_ANOMALY": 97.2981, "EPHEMERIS_TYPE": 0, "CLASSIFICATION_TYPE": "U", "NORAD_CAT_ID": 28702, "ELEMENT_SET_NO": 999, "REV_AT_EPOCH": 5017, "BSTAR": 0, "MEAN_MOTION_DOT": -1.65e-06, "MEAN_MOTION_DDOT": 0}, "tle": {"line1": "1 28702U 05022A   25354.03438058 -.00000165  00000+0  00000+0 0  9999", "line2": "2 28702   2.8382  81.1982 0002938 194.0723  97.2981  1.00271047 50172"}}, "geometry": {"type": "Point", "coordinates": [60.54925586888287, -0.9798106461258754]}}, {"type": "Feature", "properties": {"norad_id": 29236, "name": "GALAXY 16 (G-16)", "group": "intelsat", "lat": -0.004772809394874705, "lon": 50.20253613992515, "alt_km": 35794.16601940968, "timestamp": "2025-12-21T03:56:50.521917+00:00", "meta": {"OBJECT_NAME": "GALAXY 16 (G-16)", "OBJECT_ID": "2006-023A", "EPOCH": "2025-12-20T16:10:59.142432", "MEAN_MOTION": 1.00271069, "ECCENTRICITY": 0.0002474, "INCLINATION": 0.0066, "RA_OF_ASC_NODE": 240.5533, "ARG_OF_PERICENTER": 31.0311, "MEAN_ANOMALY": 321.6621, "EPHEMERIS_TYPE": 0, "CLASSIFICATION_TYPE": "U", "NORAD_CAT_ID": 29236, "ELEMENT_SET_NO": 999, "REV_AT_EPOCH": 7118, "BSTAR": 0, "MEAN_MOTION_DOT": -1.03e-06, "MEAN_MOTION_DDOT": 0}, "tle": {"line1": "1 29236U 06023A   25354.67429563 -.00000103  00000+0  00000+0 0  9997", "line2": "2 29236   0.0066 240.5533 0002474  31.0311 321.6621  1.00271069 71188"}}, "geometry": {"type": "Point", "coordinates": [50.20253613992515, -0.004772809394874705]}}, {"type": "Feature", "properties": {"norad_id": 29494, "name": "DIRECTV 9S", "group": "intelsat", "lat": -1.1086943113710213, "lon": 48.02058316276539, "alt_km": 35794.37433848467, "timestamp": "2025-12-21T03:56:50.521928+00:00", "meta": {"OBJECT_NAME": "DIRECTV 9S", "OBJECT_ID": "2006-043A", "EPOCH": "2025-12-20T16:10:21.700992", "MEAN_MOTION": 1.00271599, "ECCENTRICITY": 0.0002825, "INCLINATION": 1.9594, "RA_OF_ASC_NODE": 83.1295, "ARG_OF_PERICENTER": 192.4482, "MEAN_ANOMALY": 315.3062, "EPHEMERIS_TYPE": 0, "CLASSIFICATION_TYPE": "U", "NORAD_CAT_ID": 29494, "ELEMENT_SET_NO": 999, "REV_AT_EPOCH": 4959, "BSTAR": 0, "MEAN_MOTION_DOT": -9.1e-07, "MEAN_MOTION_DDOT": 0}, "tle": {"line1": "1 29494U 06043A   25354.67386228 -.00000091  00000+0  00000+0 0  9991", "line2": "2 29494   1.9594  83.1295 0002825 192.4482 315.3062  1.00271599 49594"}}, "geometry": {"type": "Point", "coordinates": [48.02058316276539, -1.1086943113710213]}}, {"type": "Feature", "properties": {"norad_id": 31307, "name": "GALAXY 17 (G-17)", "group": "intelsat", "lat": -0.7535631743747686, "lon": 64.24623288738184, "alt_km": 35808.999865605656, "timestamp": "2025-12-21T03:56:50.521939+00:00", "meta": {"OBJECT_NAME": "GALAXY 17 (G-17)", "OBJECT_ID": "2007-016B", "EPOCH": "2025-12-20T14:32:16.095840", "MEAN_MOTION": 1.00271272, "ECCENTRICITY": 0.0005398, "INCLINATION": 2.5184, "RA_OF_ASC_NODE": 82.199, "ARG_OF_PERICENTER": 169.9155, "MEAN_ANOMALY": 330.42, "EPHEMERIS_TYPE": 0, "CLASSIFICATION_TYPE": "U", "NORAD_CAT_ID": 31307, "ELEMENT_SET_NO": 999, "REV_AT_EPOCH": 6801, "BSTAR": 0, "MEAN_MOTION_DOT": -1.85e-06, "MEAN_MOTION_DDOT": 0}, "tle": {"line1": "1 31307U 07016B   25354.60574185 -.00000185  00000+0  00000+0 0  9996", "line2": "2 31307   2.5184  82.1990 0005398 169.9155 330.4200  1.00271272 68015"}}, "geometry": {"type": "Point", "coordinates": [64.24623288738184, -0.7535631743747686]}}, {"type": "Feature", "properties": {"norad_id": 31862, "name": "DIRECTV 10", "group": "intelsat", "lat": -0.002193898316814734, "lon": 46.3874415374294, "alt_km": 35787.09426761706, "timestamp": "2025-12-21T03:56:50.521949+00:00", "meta": {"OBJECT_NAME": "DIRECTV 10", "OBJECT_ID": "2007-032A", "EPOCH": "2025-12-20T14:27:16.573824", "MEAN_MOTION": 1.00271665, "ECCENTRICITY": 2.44e-05, "INCLINATION": 0.0067, "RA_OF_ASC_NODE": 112.428, "ARG_OF_PERICENTER": 94.8447, "MEAN_ANOMALY": 356.179, "EPHEMERIS_TYPE": 0, "CLASSIFICATION_TYPE": "U", "NORAD_CAT_ID": 31862, "ELEMENT_SET_NO": 999, "REV_AT_EPOCH": 4380, "BSTAR": 0, "MEAN_MOTION_DOT": -7.9e-07, "MEAN_MOTION_DDOT": 0}, "tle": {"line1": "1 31862U 07032A   25354.60227516 -.00000079  00000+0  00000+0 0  9995", "line2": "2 31862   0.0067 112.4280 0000244  94.8447 356.1790  1.00271665 43803"}}, "geometry": {"type": "Point", "coordinates": [46.3874415374294, -0.002193898316814734]}}, {"type": "Feature", "properties": {"norad_id": 32253, "name": "INTELSAT 11 (IS-11)", "group": "intelsat", "lat": -3.0346497901514753, "lon": -22.088701017188164, "alt_km": 36130.403729380334, "timestamp": "2025-12-21T03:56:50.521960+00:00", "meta": {"OBJECT_NAME": "INTELSAT 11 (IS-11)", "OBJECT_ID": "2007-044B", "EPOCH": "2025-12-20T15:51:01.054368", "MEAN_MOTION": 0.99052297, "ECCENTRICITY": 0.0008536, "INCLINATION": 3.0996, "RA_OF_ASC_NODE": 80.8896, "ARG_OF_PERICENTER": 168.9829, "MEAN_ANOMALY": 268.2225, "EPHEMERIS_TYPE": 0, "CLASSIFICATION_TYPE": "U", "NORAD_CAT_ID": 32253, "ELEMENT_SET_NO": 999, "REV_AT_EPOCH": 6668, "BSTAR": 0, "MEAN_MOTION_DOT": -6.6e-07, "MEAN_MOTION_DDOT": 0}, "tle": {"line1": "1 32253U 07044B   25354.66042887 -.00000066  00000+0  00000+0 0  9991", "line2": "2 32253   3.0996  80.8896 0008536 168.9829 268.2225  0.99052297 66684"}}, "geometry": {"type": "Point", "coordinates": [-22.088701017188164, -3.0346497901514753]}}, {"type": "Feature", "properties": {"norad_id": 32388, "name": "HORIZONS-2", "group": "intelsat", "lat": -0.25174395284644124, "lon": 75.43287577339989, "alt_km": 35804.32928816202, "timestamp": "2025-12-21T03:56:50.521971+00:00", "meta": {"OBJECT_NAME": "HORIZONS-2", "OBJECT_ID": "2007-063B", "EPOCH": "2025-12-20T12:50:36.450240", "MEAN_MOTION": 1.00271677, "ECCENTRICITY": 0.0004588, "INCLINATION": 2.1407, "RA_OF_ASC_NODE": 82.878, "ARG_OF_PERICENTER": 193.8672, "MEAN_ANOMALY": 291.4916, "EPHEMERIS_TYPE": 0, "CLASSIFICATION_TYPE": "U", "NORAD_CAT_ID": 32388, "ELEMENT_SET_NO": 999, "REV_AT_EPOCH": 6602, "BSTAR": 0, "MEAN_MOTION_DOT": -2.32e-06, "MEAN_MOTION_DDOT": 0}, "tle": {"line1": "1 32388U 07063B   25354.53514410 -.00000232  00000+0  00000+0 0  9998", "line2": "2 32388   2.1407  82.8780 0004588 193.8672 291.4916  1.00271677 66021"}}, "geometry": {"type": "Point", "coordinates": [75.43287577339989, -0.25174395284644124]}}, {"type": "Feature", "properties": {"norad_id": 32729, "name": "DIRECTV 11", "group": "intelsat", "lat": 0.018786256537181693, "lon": 50.03449448722075, "alt_km": 35786.18448757847, "timestamp": "2025-12-21T03:56:50.521982+00:00", "meta": {"OBJECT_NAME": "DIRECTV 11", "OBJECT_ID": "2008-013A", "EPOCH": "2025-12-20T12:09:57.854304", "MEAN_MOTION": 1.00281934, "ECCENTRICITY": 6.957e-05, "INCLINATION": 0.0453, "RA_OF_ASC_NODE": 198.5655, "ARG_OF_PERICENTER": 32.627, "MEAN_ANOMALY": 301.4589, "EPHEMERIS_TYPE": 0, "CLASSIFICATION_TYPE": "U", "NORAD_CAT_ID": 32729, "ELEMENT_SET_NO": 999, "REV_AT_EPOCH": 4380, "BSTAR": 0, "MEAN_MOTION_DOT": -1.03e-06, "MEAN_MOTION_DDOT": 0}, "tle": {"line1": "1 32729U 08013A   25354.50691961 -.00000103  00000+0  00000+0 0  9994", "line2": "2 32729   0.0453 198.5655 0000695  32.6270 301.4589  1.00281934 43809"}}, "geometry": {"type": "Point", "coordinates": [50.03449448722075, 0.018786256537181693]}}, {"type": "Feature", "properties": {"norad_id": 32951, "name": "GALAXY 18 (G-18)", "group": "intelsat", "lat": -0.0022351182536730417, "lon": 26.208979617014567, "alt_km": 35790.64731122658, "timestamp": "2025-12-21T03:56:50.521993+00:00", "meta": {"OBJECT_NAME": "GALAXY 18 (G-18)", "OBJECT_ID": "2008-024A", "EPOCH": "2025-12-20T17:46:55.869024", "MEAN_MOTION": 1.00271082, "ECCENTRICITY": 0.0002829, "INCLINATION": 0.016, "RA_OF_ASC_NODE": 56.7149, "ARG_OF_PERICENTER": 218.0405, "MEAN_ANOMALY": 318.5378, "EPHEMERIS_TYPE": 0, "CLASSIFICATION_TYPE": "U", "NORAD_CAT_ID": 32951, "ELEMENT_SET_NO": 999, "REV_AT_EPOCH": 4406, "BSTAR": 0, "MEAN_MOTION_DOT": 4.9e-07, "MEAN_MOTION_DDOT": 0}, "tle": {"line1": "1 32951U 08024A   25354.74092441  .00000049  00000+0  00000+0 0  9995", "line2": "2 32951   0.0160  56.7149 0002829 218.0405 318.5378  1.00271082 44062"}}, "geometry": {"type": "Point", "coordinates": [26.208979617014567, -0.0022351182536730417]}}]}